ONEWEB-0711             
1 55174U 23004AL  26034.27468593 -.00000103  00000+0 -32757-3 0  9992
2 55174  87.8822  47.7099 0002577  85.4468 274.6955 13.11415094148281
ONEWEB-0713             
1 55175U 23004AM  26034.29333478 -.00000495  00000+0 -14330-2 0  9998
2 55175  87.8818  47.7067 0002216  88.2808 271.8574 13.11417992148275
ONEWEB-0715             
1 55176U 23004AN  26034.28824517 -.00000579  00000+0 -16688-2 0  9998
2 55176  87.8817  47.7085 0002192 109.9205 250.2160 13.11415543148317
ONEWEB-0716             
1 55177U 23004AP  26033.48626527 -.00000039  00000+0 -13484-3 0  9994
2 55177  87.9093  32.6315 0001645  85.4332 274.6988 13.17649658149844
ONEWEB-0717             
1 55178U 23004AQ  26034.22875073 -.00000009  00000+0 -56520-4 0  9996
2 55178  87.9105  32.4595 0002568  87.0938 273.0488 13.17650429149994
ONEWEB-0719             
1 55179U 23004AR  26033.70734022  .00000103  00000+0  23332-3 0  9994
2 55179  87.9102  32.5455 0001779  82.9205 277.2129 13.17648934149875
ONEWEB-0530             
1 55796U 23029A   26034.22819395  .00000111  00000+0  24199-3 0  9992
2 55796  87.9216 301.2146 0002114  70.9315 289.2047 13.20773873143468
ONEWEB-0534             
1 55797U 23029B   26034.21556797  .00000128  00000+0  28384-3 0  9994
2 55797  87.9213 301.2164 0001552  75.8323 284.2982 13.20774774143468
ONEWEB-0556             
1 55798U 23029C   26034.22188576  .00000094  00000+0  19893-3 0  9999
2 55798  87.9217 301.2168 0001665  44.9503 315.1765 13.20773052143460
ONEWEB-0562             
1 55799U 23029D   26034.20925523 -.00000036  00000+0 -12128-3 0  9991
2 55799  87.9214 301.1992 0002292  59.3289 300.8070 13.20773490143466
ONEWEB-0563             
1 55800U 23029E   26034.20293629 -.00000002  00000+0 -36183-4 0  9990
2 55800  87.9219 301.2306 0001406  73.6963 286.4325 13.20774687143458
ONEWEB-0564             
1 55801U 23029F   26034.19662096  .00000051  00000+0  93365-4 0  9994
2 55801  87.9213 301.2050 0001973  69.6779 290.4566 13.20775243143460
ONEWEB-0638             
1 55802U 23029G   26034.19741452 -.00000179  00000+0 -51612-3 0  9990
2 55802  87.9019 316.4762 0001803  60.7511 299.3799 13.14503509141798
ONEWEB-0639             
1 55803U 23029H   26034.21525938  .00000036  00000+0  58383-4 0  9996
2 55803  87.9246 331.6455 0000816 100.3097 259.8128 13.19723491141237
ONEWEB-0640             
1 55804U 23029J   26034.20693338  .00000000  00000+0 -34687-4 0  9999
2 55804  87.9023 316.4637 0001442  51.0323 309.0935 13.14503571141812
ONEWEB-0641             
1 55805U 23029K   26034.21053239  .00000043  00000+0  74747-4 0  9998
2 55805  87.9254 331.6313 0001610  82.6946 277.4370 13.19726988141249
