[{"OBJECT_NAME":"ONEWEB-0711","OBJECT_ID":"2023-004AL","EPOCH":"2026-02-03T06:35:32.864352","MEAN_MOTION":13.11415094,"ECCENTRICITY":0.00025776,"INCLINATION":87.8822,"RA_OF_ASC_NODE":47.7099,"ARG_OF_PERICENTER":85.4468,"MEAN_ANOMALY":274.6955,"EPHEMERIS_TYPE":0,"CLASSIFICATION_TYPE":"U","NORAD_CAT_ID":55174,"ELEMENT_SET_NO":999,"REV_AT_EPOCH":14828,"BSTAR":-0.00032757212,"MEAN_MOTION_DOT":-1.03e-6,"MEAN_MOTION_DDOT":0},{"OBJECT_NAME":"ONEWEB-0713","OBJECT_ID":"2023-004AM","EPOCH":"2026-02-03T07:02:24.124992","MEAN_MOTION":13.11417992,"ECCENTRICITY":0.00022161,"INCLINATION":87.8818,"RA_OF_ASC_NODE":47.7067,"ARG_OF_PERICENTER":88.2808,"MEAN_ANOMALY":271.8574,"EPHEMERIS_TYPE":0,"CLASSIFICATION_TYPE":"U","NORAD_CAT_ID":55175,"ELEMENT_SET_NO":999,"REV_AT_EPOCH":14827,"BSTAR":-0.0014330049,"MEAN_MOTION_DOT":-4.95e-6,"MEAN_MOTION_DDOT":0},{"OBJECT_NAME":"ONEWEB-0715","OBJECT_ID":"2023-004AN","EPOCH":"2026-02-03T06:55:04.382688","MEAN_MOTION":13.11415543,"ECCENTRICITY":0.00021926,"INCLINATION":87.8817,"RA_OF_ASC_NODE":47.7085,"ARG_OF_PERICENTER":109.9205,"MEAN_ANOMALY":250.216,"EPHEMERIS_TYPE":0,"CLASSIFICATION_TYPE":"U","NORAD_CAT_ID":55176,"ELEMENT_SET_NO":999,"REV_AT_EPOCH":14831,"BSTAR":-0.0016687999,"MEAN_MOTION_DOT":-5.79e-6,"MEAN_MOTION_DDOT":0},{"OBJECT_NAME":"ONEWEB-0716","OBJECT_ID":"2023-004AP","EPOCH":"2026-02-02T11:40:13.319328","MEAN_MOTION":13.17649658,"ECCENTRICITY":0.00016453,"INCLINATION":87.9093,"RA_OF_ASC_NODE":32.6315,"ARG_OF_PERICENTER":85.4332,"MEAN_ANOMALY":274.6988,"EPHEMERIS_TYPE":0,"CLASSIFICATION_TYPE":"U","NORAD_CAT_ID":55177,"ELEMENT_SET_NO":999,"REV_AT_EPOCH":14984,"BSTAR":-0.00013483617,"MEAN_MOTION_DOT":-3.9e-7,"MEAN_MOTION_DDOT":0},{"OBJECT_NAME":"ONEWEB-0717","OBJECT_ID":"2023-004AQ","EPOCH":"2026-02-03T05:29:24.063072","MEAN_MOTION":13.17650429,"ECCENTRICITY":0.00025683,"INCLINATION":87.9105,"RA_OF_ASC_NODE":32.4595,"ARG_OF_PERICENTER":87.0938,"MEAN_ANOMALY":273.0488,"EPHEMERIS_TYPE":0,"CLASSIFICATION_TYPE":"U","NORAD_CAT_ID":55178,"ELEMENT_SET_NO":999,"REV_AT_EPOCH":14999,"BSTAR":-5.6519767e-5,"MEAN_MOTION_DOT":-9.0e-8,"MEAN_MOTION_DDOT":0},{"OBJECT_NAME":"ONEWEB-0719","OBJECT_ID":"2023-004AR","EPOCH":"2026-02-02T16:58:34.195008","MEAN_MOTION":13.17648934,"ECCENTRICITY":0.00017797,"INCLINATION":87.9102,"RA_OF_ASC_NODE":32.5455,"ARG_OF_PERICENTER":82.9205,"MEAN_ANOMALY":277.2129,"EPHEMERIS_TYPE":0,"CLASSIFICATION_TYPE":"U","NORAD_CAT_ID":55179,"ELEMENT_SET_NO":999,"REV_AT_EPOCH":14987,"BSTAR":0.00023332043,"MEAN_MOTION_DOT":1.03e-6,"MEAN_MOTION_DDOT":0},{"OBJECT_NAME":"ONEWEB-0530","OBJECT_ID":"2023-029A","EPOCH":"2026-02-03T05:28:35.957280","MEAN_MOTION":13.20773873,"ECCENTRICITY":0.00021146,"INCLINATION":87.9216,"RA_OF_ASC_NODE":301.2146,"ARG_OF_PERICENTER":70.9315,"MEAN_ANOMALY":289.2047,"EPHEMERIS_TYPE":0,"CLASSIFICATION_TYPE":"U","NORAD_CAT_ID":55796,"ELEMENT_SET_NO":999,"REV_AT_EPOCH":14346,"BSTAR":0.00024199116,"MEAN_MOTION_DOT":1.11e-6,"MEAN_MOTION_DDOT":0},{"OBJECT_NAME":"ONEWEB-0534","OBJECT_ID":"2023-029B","EPOCH":"2026-02-03T05:10:25.072608","MEAN_MOTION":13.20774774,"ECCENTRICITY":0.00015524,"INCLINATION":87.9213,"RA_OF_ASC_NODE":301.2164,"ARG_OF_PERICENTER":75.8323,"MEAN_ANOMALY":284.2982,"EPHEMERIS_TYPE":0,"CLASSIFICATION_TYPE":"U","NORAD_CAT_ID":55797,"ELEMENT_SET_NO":999,"REV_AT_EPOCH":14346,"BSTAR":0.00028383983,"MEAN_MOTION_DOT":1.28e-6,"MEAN_MOTION_DDOT":0},{"OBJECT_NAME":"ONEWEB-0556","OBJECT_ID":"2023-029C","EPOCH":"2026-02-03T05:19:30.929664","MEAN_MOTION":13.20773052,"ECCENTRICITY":0.00016656,"INCLINATION":87.9217,"RA_OF_ASC_NODE":301.2168,"ARG_OF_PERICENTER":44.9503,"MEAN_ANOMALY":315.1765,"EPHEMERIS_TYPE":0,"CLASSIFICATION_TYPE":"U","NORAD_CAT_ID":55798,"ELEMENT_SET_NO":999,"REV_AT_EPOCH":14346,"BSTAR":0.00019893267,"MEAN_MOTION_DOT":9.4e-7,"MEAN_MOTION_DDOT":0},{"OBJECT_NAME":"ONEWEB-0562","OBJECT_ID":"2023-029D","EPOCH":"2026-02-03T05:01:19.651872","MEAN_MOTION":13.2077349,"ECCENTRICITY":0.00022928,"INCLINATION":87.9214,"RA_OF_ASC_NODE":301.1992,"ARG_OF_PERICENTER":59.3289,"MEAN_ANOMALY":300.807,"EPHEMERIS_TYPE":0,"CLASSIFICATION_TYPE":"U","NORAD_CAT_ID":55799,"ELEMENT_SET_NO":999,"REV_AT_EPOCH":14346,"BSTAR":-0.0001212813,"MEAN_MOTION_DOT":-3.6e-7,"MEAN_MOTION_DDOT":0},{"OBJECT_NAME":"ONEWEB-0563","OBJECT_ID":"2023-029E","EPOCH":"2026-02-03T04:52:13.695456","MEAN_MOTION":13.20774687,"ECCENTRICITY":0.00014068,"INCLINATION":87.9219,"RA_OF_ASC_NODE":301.2306,"ARG_OF_PERICENTER":73.6963,"MEAN_ANOMALY":286.4325,"EPHEMERIS_TYPE":0,"CLASSIFICATION_TYPE":"U","NORAD_CAT_ID":55800,"ELEMENT_SET_NO":999,"REV_AT_EPOCH":14345,"BSTAR":-3.6182536e-5,"MEAN_MOTION_DOT":-2.0e-8,"MEAN_MOTION_DDOT":0},{"OBJECT_NAME":"ONEWEB-0564","OBJECT_ID":"2023-029F","EPOCH":"2026-02-03T04:43:08.050944","MEAN_MOTION":13.20775243,"ECCENTRICITY":0.00019733,"INCLINATION":87.9213,"RA_OF_ASC_NODE":301.205,"ARG_OF_PERICENTER":69.6779,"MEAN_ANOMALY":290.4566,"EPHEMERIS_TYPE":0,"CLASSIFICATION_TYPE":"U","NORAD_CAT_ID":55801,"ELEMENT_SET_NO":999,"REV_AT_EPOCH":14346,"BSTAR":9.3365296e-5,"MEAN_MOTION_DOT":5.1e-7,"MEAN_MOTION_DDOT":0},{"OBJECT_NAME":"ONEWEB-0638","OBJECT_ID":"2023-029G","EPOCH":"2026-02-03T04:44:16.614528","MEAN_MOTION":13.14503509,"ECCENTRICITY":0.00018036,"INCLINATION":87.9019,"RA_OF_ASC_NODE":316.4762,"ARG_OF_PERICENTER":60.7511,"MEAN_ANOMALY":299.3799,"EPHEMERIS_TYPE":0,"CLASSIFICATION_TYPE":"U","NORAD_CAT_ID":55802,"ELEMENT_SET_NO":999,"REV_AT_EPOCH":14179,"BSTAR":-0.00051611894,"MEAN_MOTION_DOT":-1.79e-6,"MEAN_MOTION_DDOT":0},{"OBJECT_NAME":"ONEWEB-0639","OBJECT_ID":"2023-029H","EPOCH":"2026-02-03T05:09:58.410432","MEAN_MOTION":13.19723491,"ECCENTRICITY":8.169e-5,"INCLINATION":87.9246,"RA_OF_ASC_NODE":331.6455,"ARG_OF_PERICENTER":100.3097,"MEAN_ANOMALY":259.8128,"EPHEMERIS_TYPE":0,"CLASSIFICATION_TYPE":"U","NORAD_CAT_ID":55803,"ELEMENT_SET_NO":999,"REV_AT_EPOCH":14123,"BSTAR":5.8383079e-5,"MEAN_MOTION_DOT":3.6e-7,"MEAN_MOTION_DDOT":0},{"OBJECT_NAME":"ONEWEB-0640","OBJECT_ID":"2023-029J","EPOCH":"2026-02-03T04:57:59.044032","MEAN_MOTION":13.14503571,"ECCENTRICITY":0.0001442,"INCLINATION":87.9023,"RA_OF_ASC_NODE":316.4637,"ARG_OF_PERICENTER":51.0323,"MEAN_ANOMALY":309.0935,"EPHEMERIS_TYPE":0,"CLASSIFICATION_TYPE":"U","NORAD_CAT_ID":55804,"ELEMENT_SET_NO":999,"REV_AT_EPOCH":14181,"BSTAR":-3.4687123e-5,"MEAN_MOTION_DOT":0,"MEAN_MOTION_DDOT":0},{"OBJECT_NAME":"ONEWEB-0641","OBJECT_ID":"2023-029K","EPOCH":"2026-02-03T05:03:09.998496","MEAN_MOTION":13.19726988,"ECCENTRICITY":0.00016108,"INCLINATION":87.9254,"RA_OF_ASC_NODE":331.6313,"ARG_OF_PERICENTER":82.6946,"MEAN_ANOMALY":277.437,"EPHEMERIS_TYPE":0,"CLASSIFICATION_TYPE":"U","NORAD_CAT_ID":55805,"ELEMENT_SET_NO":999,"REV_AT_EPOCH":14124,"BSTAR":7.4747106e-5,"MEAN_MOTION_DOT":4.3e-7,"MEAN_MOTION_DDOT":0}]
